NORAD_CAT_ID,OBJECT_NAME,OBJECT_TYPE,EPOCH,MEAN_MOTION,ECCENTRICITY,INCLINATION,RA_OF_ASC_NODE,ARG_OF_PERICENTER,MEAN_ANOMALY,BSTAR,MEAN_MOTION_DOT,MEAN_MOTION_DDOT,TLE_LINE0,TLE_LINE1,TLE_LINE2,SEMIMAJOR_AXIS,PERIOD,APOGEE,PERIGEE,DECAYED
53249.0,STARLINK-4128,PAYLOAD,2023-02-23 11:02:05,15.08838562,0.0001149,53.2132,138.1402,87.2054,272.907,0.001504,0.00023728,0.0,0 STARLINK-4128,1 53249U 22086H   23054.45978560  .00023728  00000-0  15040-2 0  9993,2 53249  53.2132 138.1402 0001149  87.2054 272.9070 15.08838562 33471,6917.885,95.438,540.545,538.955,0.0
53249.0,STARLINK-4128,PAYLOAD,2023-02-23 15:48:14,15.08851051,0.0001209,53.2131,137.2483,88.3361,271.777,0.0016832,0.0002661,0.0,0 STARLINK-4128,1 53249U 22086H   23054.65850438  .00026610  00000-0  16832-2 0  9991,2 53249  53.2131 137.2483 0001209  88.3361 271.7770 15.08851051 33505,6917.847,95.437,540.548,538.875,0.0
53249.0,STARLINK-4128,PAYLOAD,2023-02-23 22:09:47,15.08845631,0.000117,53.2131,136.0592,110.3163,249.7955,0.00055945,8.628e-05,0.0,0 STARLINK-4128,1 53249U 22086H   23054.92346406  .00008628  00000-0  55945-3 0  9994,2 53249  53.2131 136.0592 0001170 110.3163 249.7955 15.08845631 33345,6917.863,95.437,540.538,538.919,0.0
53249.0,STARLINK-4128,PAYLOAD,2023-02-24 12:28:14,15.08866351,0.0001174,53.2132,133.3834,104.3869,255.7254,0.0012116,0.00019061,0.0,0 STARLINK-4128,1 53249U 22086H   23055.51961695  .00019061  00000-0  12116-2 0  9998,2 53249  53.2132 133.3834 0001174 104.3869 255.7254 15.08866351 33638,6917.8,95.436,540.477,538.853,0.0
53249.0,STARLINK-4128,PAYLOAD,2023-02-24 17:14:23,15.0887526,0.0001172,53.213,132.4911,102.8956,257.2167,0.0011931,0.0001877,0.0,0 STARLINK-4128,1 53249U 22086H   23055.71833252  .00018770  00000-0  11931-2 0  9997,2 53249  53.2130 132.4911 0001172 102.8956 257.2167 15.08875260 33662,6917.773,95.435,540.448,538.827,0.0
53249.0,STARLINK-4128,PAYLOAD,2023-02-25 13:54:26,15.08817112,0.0001188,53.2129,128.6248,76.8498,283.2627,-0.00029224,-4.933e-05,0.0,0 STARLINK-4128,1 53249U 22086H   23056.57946869 -.00004933  00000-0 -29224-3 0  9994,2 53249  53.2129 128.6248 0001188  76.8498 283.2627 15.08817112 33794,6917.95,95.439,540.637,538.993,0.0
53249.0,STARLINK-4128,PAYLOAD,2023-02-25 17:05:12,15.08829247,0.0001062,53.2125,128.0293,76.3796,283.7314,7.9367e-05,9.75e-06,0.0,0 STARLINK-4128,1 53249U 22086H   23056.71194873  .00000975  00000-0  79367-4 0  9994,2 53249  53.2125 128.0293 0001062  76.3796 283.7314 15.08829247 33612,6917.913,95.438,540.513,539.044,0.0
53249.0,STARLINK-4128,PAYLOAD,2023-02-25 21:51:22,15.08830953,0.0001243,53.2119,127.1385,78.7159,281.3973,0.00088693,0.00013852,0.0,0 STARLINK-4128,1 53249U 22086H   23056.91067226  .00013852  00000-0  88693-3 0  9996,2 53249  53.2119 127.1385 0001243  78.7159 281.3973 15.08830953 33843,6917.908,95.438,540.633,538.913,0.0
53249.0,STARLINK-4128,PAYLOAD,2023-02-26 08:59:03,15.08857493,8.2e-05,53.2138,125.057,69.2574,290.8506,0.0015143,0.00023906,0.0,0 STARLINK-4128,1 53249U 22086H   23057.37434823  .00023906  00000-0  15143-2 0  9998,2 53249  53.2138 125.0570 0000820  69.2574 290.8506 15.08857493 33714,6917.827,95.436,540.259,539.125,0.0
53249.0,STARLINK-4128,PAYLOAD,2023-02-26 13:45:12,15.08880167,0.0001241,53.2122,124.1637,74.1014,286.0115,0.0020802,0.0003301,0.0,0 STARLINK-4128,1 53249U 22086H   23057.57306395  .00033010  00000-0  20802-2 0  9997,2 53249  53.2122 124.1637 0001241  74.1014 286.0115 15.08880167 33945,6917.758,95.435,540.481,538.764,0.0
53249.0,STARLINK-4128,PAYLOAD,2023-02-26 16:55:58,15.08891115,0.0001222,53.2124,123.5685,73.9205,286.1922,0.0022033,0.00035001,0.0,0 STARLINK-4128,1 53249U 22086H   23057.70553959  .00035001  00000-0  22033-2 0  9992,2 53249  53.2124 123.5685 0001222  73.9205 286.1922 15.08891115 33763,6917.724,95.434,540.435,538.744,0.0
53249.0,STARLINK-4128,PAYLOAD,2023-02-26 21:42:08,15.08834941,5.57e-05,53.2135,122.6764,109.2139,250.8913,-0.00053425,-8.779e-05,0.0,0 STARLINK-4128,1 53249U 22086H   23057.90426440 -.00008779  00000-0 -53425-3 0  9992,2 53249  53.2135 122.6764 0000557 109.2139 250.8913 15.08834941 33999,6917.896,95.438,540.146,539.376,0.0
53249.0,STARLINK-4128,PAYLOAD,2023-02-27 04:03:41,15.08838826,8.71e-05,53.2124,121.4882,81.2483,278.8607,-0.00010638,-1.98e-05,0.0,0 STARLINK-4128,1 53249U 22086H   23058.16922714 -.00001980  00000-0 -10638-3 0  9992,2 53249  53.2124 121.4882 0000871  81.2483 278.8607 15.08838826 33834,6917.884,95.438,540.352,539.146,0.0
53249.0,STARLINK-4128,PAYLOAD,2023-02-27 15:11:22,15.08915887,0.0001161,53.2125,119.4045,95.4239,264.6885,0.0066212,0.00106913,0.0,0 STARLINK-4128,1 53249U 22086H   23058.63290308  .00106913  00000-0  66212-2 0  9999,2 53249  53.2125 119.4045 0001161  95.4239 264.6885 15.08915887 33904,6917.648,95.433,540.317,538.71,0.0
53249.0,STARLINK-4128,PAYLOAD,2023-02-27 21:32:55,15.08865575,0.0001261,53.2134,118.214,120.3409,239.7708,0.0016298,0.00025764,0.0,0 STARLINK-4128,1 53249U 22086H   23058.89786204  .00025764  00000-0  16298-2 0  9995,2 53249  53.2134 118.2140 0001261 120.3409 239.7708 15.08865575 34147,6917.802,95.436,540.54,538.795,0.0
53249.0,STARLINK-4128,PAYLOAD,2023-02-28 03:54:27,15.08875133,0.0001762,53.2124,117.025,115.0752,245.0423,0.0022821,0.00036254,0.0,0 STARLINK-4128,1 53249U 22086H   23059.16282078  .00036254  00000-0  22821-2 0  9991,2 53249  53.2124 117.0250 0001762 115.0752 245.0423 15.08875133 33989,6917.773,95.435,540.857,538.419,0.0
53249.0,STARLINK-4128,PAYLOAD,2023-02-28 10:15:59,15.08878715,0.0001402,53.2135,115.8353,121.9928,238.12,0.0021057,0.00033419,0.0,0 STARLINK-4128,1 53249U 22086H   23059.42777547  .00033419  00000-0  21057-2 0  9990,2 53249  53.2135 115.8353 0001402 121.9928 238.1200 15.08878715 34226,6917.762,95.435,540.597,538.657,0.0
53249.0,STARLINK-4128,PAYLOAD,2023-02-28 15:02:08,15.08886192,0.0001466,53.2133,114.9428,118.1776,241.9365,0.0017127,0.00027109,0.0,0 STARLINK-4128,1 53249U 22086H   23059.62649009  .00027109  00000-0  17127-2 0  9995,2 53249  53.2133 114.9428 0001466 118.1776 241.9365 15.08886192 34251,6917.739,95.435,540.618,538.59,0.0
53249.0,STARLINK-4128,PAYLOAD,2023-03-01 08:31:23,15.08856118,0.0001495,53.214,111.6725,113.4099,246.705,0.0017378,0.0002749,0.0,0 STARLINK-4128,1 53249U 22086H   23060.35513303  .00027490  00000-0  17378-2 0  9995,2 53249  53.2140 111.6725 0001495 113.4099 246.7050 15.08856118 34160,6917.831,95.437,540.73,538.662,0.0
53249.0,STARLINK-4128,PAYLOAD,2023-03-01 14:52:55,15.0886548,0.0001628,53.2145,110.4825,112.0549,248.0616,0.0017978,0.0002846,0.0,0 STARLINK-4128,1 53249U 22086H   23060.62009047  .00028460  00000-0  17978-2 0  9994,2 53249  53.2145 110.4825 0001628 112.0549 248.0616 15.08865480 34408,6917.803,95.436,540.794,538.541,0.0
53249.0,STARLINK-4128,PAYLOAD,2023-03-02 03:36:01,15.08836435,0.000185,53.2138,108.1026,89.748,270.3724,0.0016076,0.00025387,0.0,0 STARLINK-4128,1 53249U 22086H   23061.15001678  .00025387  00000-0  16076-2 0  9998,2 53249  53.2138 108.1026 0001850  89.7480 270.3724 15.08836435 34280,6917.891,95.438,541.036,538.476,0.0
53249.0,STARLINK-4128,PAYLOAD,2023-03-02 14:43:43,15.08856919,0.0001291,53.2145,106.0221,87.0504,273.0636,0.001526,0.00024093,0.0,0 STARLINK-4128,1 53249U 22086H   23061.61369262  .00024093  00000-0  15260-2 0  9992,2 53249  53.2145 106.0221 0001291  87.0504 273.0636 15.08856919 34550,6917.829,95.436,540.587,538.801,0.0
53249.0,STARLINK-4128,PAYLOAD,2023-03-03 08:12:58,15.08836443,0.0001216,53.2141,102.753,108.6721,251.4404,0.0022237,0.00035276,0.0,0 STARLINK-4128,1 53249U 22086H   23062.34234496  .00035276  00000-0  22237-2 0  9990,2 53249  53.2141 102.7530 0001216 108.6721 251.4404 15.08836443 34463,6917.891,95.438,540.597,538.915,0.0
53249.0,STARLINK-4128,PAYLOAD,2023-03-03 11:23:44,15.08842733,0.000132,53.2142,102.158,109.3116,250.8019,0.0021659,0.00034353,0.0,0 STARLINK-4128,1 53249U 22086H   23062.47482509  .00034353  00000-0  21659-2 0  9996,2 53249  53.2142 102.1580 0001320 109.3116 250.8019 15.08842733 34683,6917.872,95.437,540.65,538.824,0.0
53249.0,STARLINK-4128,PAYLOAD,2023-03-03 19:20:41,15.08843978,0.0001664,53.2146,100.6719,88.2703,271.848,0.0017096,0.00027028,0.0,0 STARLINK-4128,1 53249U 22086H   23062.80603049  .00027028  00000-0  17096-2 0  9998,2 53249  53.2146 100.6719 0001664  88.2703 271.8480 15.08843978 34735,6917.868,95.437,540.884,538.582,0.0
53249.0,STARLINK-4128,PAYLOAD,2023-03-04 06:28:23,15.08842089,0.0001117,53.2138,98.5891,96.2188,263.8931,0.0014831,0.00023396,0.0,0 STARLINK-4128,1 53249U 22086H   23063.26971095  .00023396  00000-0  14831-2 0  9996,2 53249  53.2138  98.5891 0001117  96.2188 263.8931 15.08842089 34601,6917.874,95.437,540.512,538.966,0.0
53249.0,STARLINK-4128,PAYLOAD,2023-03-04 08:03:46,15.08844768,0.0001272,53.2137,98.2919,91.9388,268.175,0.0014245,0.00022459,0.0,0 STARLINK-4128,1 53249U 22086H   23063.33595101  .00022459  00000-0  14245-2 0  9992,2 53249  53.2137  98.2919 0001272  91.9388 268.1750 15.08844768 34810,6917.866,95.437,540.611,538.851,0.0
53249.0,STARLINK-4128,PAYLOAD,2023-03-04 19:11:28,15.088455,0.0001488,53.2136,96.209,74.2699,285.8457,0.0011965,0.00018808,0.0,0 STARLINK-4128,1 53249U 22086H   23063.79963312  .00018808  00000-0  11965-2 0  9994,2 53249  53.2136  96.2090 0001488  74.2699 285.8457 15.08845500 34685,6917.864,95.437,540.758,538.699,0.0
53249.0,STARLINK-4128,PAYLOAD,2023-03-05 11:05:20,15.08835836,0.0001681,53.2128,93.2361,79.6576,280.4606,0.00064101,9.927e-05,0.0,0 STARLINK-4128,1 53249U 22086H   23064.46203967  .00009927  00000-0  64101-3 0  9995,2 53249  53.2128  93.2361 0001681  79.6576 280.4606 15.08835836 34781,6917.893,95.438,540.921,538.595,0.0
53249.0,STARLINK-4128,PAYLOAD,2023-03-05 19:02:16,15.08840054,0.0001605,53.2134,91.7503,77.9785,282.1387,0.00075223,0.00011704,0.0,0 STARLINK-4128,1 53249U 22086H   23064.79324081  .00011704  00000-0  75223-3 0  9995,2 53249  53.2134  91.7503 0001605  77.9785 282.1387 15.08840054 35030,6917.88,95.438,540.856,538.635,0.0
